ONEWEB-0710             
1 55173U 23004AK  24059.57734325 -.00000016  00000+0 -74381-4 0  9991
2 55173  87.9258 172.9016 0001640 112.0461 248.0845 13.17649316 57019
ONEWEB-0711             
1 55174U 23004AL  24059.60585620 -.00000454  00000+0 -13169-2 0  9999
2 55174  87.9021 187.9885 0002331 129.2816 230.8519 13.11414389 55794
ONEWEB-0713             
1 55175U 23004AM  24059.62371412 -.00000279  00000+0 -82210-3 0  9993
2 55175  87.9024 187.9925 0001970 116.6069 243.5261 13.11419507 55782
ONEWEB-0715             
1 55176U 23004AN  24059.61884323 -.00000630  00000+0 -18127-2 0  9999
2 55176  87.9021 187.9936 0001951 110.2764 249.8573 13.11417781 55825
ONEWEB-0716             
1 55177U 23004AP  24059.87476323 -.00000027  00000+0 -10299-3 0  9998
2 55177  87.9262 172.8326 0001954  98.7978 261.3374 13.17649154 57051
ONEWEB-0717             
1 55178U 23004AQ  24059.55361571  .00000153  00000+0  36073-3 0  9998
2 55178  87.9260 172.8620 0002001 138.5801 221.5483 13.17650281 57062
ONEWEB-0719             
1 55179U 23004AR  24059.86843276  .00000010  00000+0 -73007-5 0  9993
2 55179  87.9259 172.7870 0002142 107.0384 253.0982 13.17648645 57054
ONEWEB-0530             
1 55796U 23029A   24059.78097577  .00000041  00000+0  68327-4 0  9992
2 55796  87.9128  81.5352 0002226 108.4759 251.6616 13.20771318 51050
